[{"OBJECT_NAME":"STARLINK-5409","OBJECT_ID":"2022-177AR","EPOCH":"2026-03-09T22:00:01.999584","MEAN_MOTION":15.10109189,"ECCENTRICITY":0.00022502,"INCLINATION":43.0003,"RA_OF_ASC_NODE":118.7951,"ARG_OF_PERICENTER":265.5893,"MEAN_ANOMALY":66.3933,"EPHEMERIS_TYPE":0,"CLASSIFICATION_TYPE":"U","NORAD_CAT_ID":54859,"ELEMENT_SET_NO":999,"REV_AT_EPOCH":577,"BSTAR":0.0015211462,"MEAN_MOTION_DOT":0.00025091,"MEAN_MOTION_DDOT":0},{"OBJECT_NAME":"OBJECT E","OBJECT_ID":"2025-013E","EPOCH":"2026-03-09T23:59:52.369152","MEAN_MOTION":15.10347623,"ECCENTRICITY":0.00085591,"INCLINATION":97.6477,"RA_OF_ASC_NODE":238.3736,"ARG_OF_PERICENTER":6.9171,"MEAN_ANOMALY":353.2174,"EPHEMERIS_TYPE":0,"CLASSIFICATION_TYPE":"U","NORAD_CAT_ID":62733,"ELEMENT_SET_NO":999,"REV_AT_EPOCH":6224,"BSTAR":0.00032920786,"MEAN_MOTION_DOT":5.34e-5,"MEAN_MOTION_DDOT":0}]
